[{"OBJECT_NAME":"YAOGAN-30 01","OBJECT_ID":"2016-029A","EPOCH":"2026-03-09T22:16:48.722016","MEAN_MOTION":14.76274788,"ECCENTRICITY":0.00157389,"INCLINATION":97.9148,"RA_OF_ASC_NODE":120.91,"ARG_OF_PERICENTER":189.8779,"MEAN_ANOMALY":170.2124,"EPHEMERIS_TYPE":0,"CLASSIFICATION_TYPE":"U","NORAD_CAT_ID":41473,"ELEMENT_SET_NO":999,"REV_AT_EPOCH":52902,"BSTAR":0.00014079797,"MEAN_MOTION_DOT":9.27e-6,"MEAN_MOTION_DDOT":0},{"OBJECT_NAME":"SL-8 R\/B","OBJECT_ID":"2000-033D","EPOCH":"2026-03-09T22:15:35.345088","MEAN_MOTION":14.73781297,"ECCENTRICITY":0.00233098,"INCLINATION":97.83,"RA_OF_ASC_NODE":44.1571,"ARG_OF_PERICENTER":215.6913,"MEAN_ANOMALY":144.2738,"EPHEMERIS_TYPE":0,"CLASSIFICATION_TYPE":"U","NORAD_CAT_ID":26387,"ELEMENT_SET_NO":999,"REV_AT_EPOCH":63377,"BSTAR":0.00021160392,"MEAN_MOTION_DOT":1.34e-5,"MEAN_MOTION_DDOT":0}]
